{
    "links": {
        "self": "http://www.neowsapp.com/rest/v1/neo/3840724?api_key=iIulBulltgU6a56xZRHN4H3l9WmuAYTsLGpBGhQ2"
    },
    "id": "3840724",
    "neo_reference_id": "3840724",
    "name": "(2019 FS1)",
    "designation": "2019 FS1",
    "nasa_jpl_url": "http://ssd.jpl.nasa.gov/sbdb.cgi?sstr=3840724",
    "absolute_magnitude_h": 25.8,
    "estimated_diameter": {
        "kilometers": {
            "estimated_diameter_min": 0.0183888672,
            "estimated_diameter_max": 0.0411187571
        },
        "meters": {
            "estimated_diameter_min": 18.388867207,
            "estimated_diameter_max": 41.1187571041
        },
        "miles": {
            "estimated_diameter_min": 0.0114263088,
            "estimated_diameter_max": 0.0255500032
        },
        "feet": {
            "estimated_diameter_min": 60.3309310875,
            "estimated_diameter_max": 134.9040630575
        }
    },
    "is_potentially_hazardous_asteroid": false,
    "close_approach_data": [
        {
            "close_approach_date": "2019-03-30",
            "close_approach_date_full": "2019-Mar-30 00:36",
            "epoch_date_close_approach": 1553906160000,
            "relative_velocity": {
                "kilometers_per_second": "15.3014680104",
                "kilometers_per_hour": "55085.2848372852",
                "miles_per_hour": "34227.8537923676"
            },
            "miss_distance": {
                "astronomical": "0.0671450432",
                "lunar": "26.1194218048",
                "kilometers": "10044755.443777984",
                "miles": "6241521.6095608192"
            },
            "orbiting_body": "Earth"
        }
    ],
    "orbital_data": {
        "orbit_id": "1",
        "orbit_determination_date": "2019-03-31 17:12:09",
        "first_observation_date": "2019-03-29",
        "last_observation_date": "2019-03-31",
        "data_arc_in_days": 2,
        "observations_used": 29,
        "orbit_uncertainty": "9",
        "minimum_orbit_intersection": ".0670324",
        "jupiter_tisserand_invariant": "4.900",
        "epoch_osculation": "2458572.5",
        "eccentricity": ".1728460488767758",
        "semi_major_axis": "1.287404920980179",
        "inclination": "28.83389460529289",
        "ascending_node_longitude": "8.424785453688965",
        "orbital_period": "533.5451471435393",
        "perihelion_distance": "1.064882067084237",
        "perihelion_argument": "185.29481352",
        "aphelion_distance": "1.50992777487612",
        "perihelion_time": "2458577.403893715648",
        "mean_anomaly": "356.6911858404396",
        "mean_motion": ".6747320295711535",
        "equinox": "J2000",
        "orbit_class": {
            "orbit_class_type": "AMO",
            "orbit_class_description": "Near-Earth asteroid orbits similar to that of 1221 Amor",
            "orbit_class_range": "1.017 AU < q (perihelion) < 1.3 AU"
        }
    },
    "is_sentry_object": false
}